{
  "type": "FeatureCollection",
  "features": [
    {
      "type": "Feature",
      "properties": {
        "norad_id": 46277,
        "name": "NEMO-HD",
        "group": "resource",
        "lat": -76.10292526240472,
        "lon": 90.89745010575135,
        "alt_km": 452.0644074782058,
        "timestamp": "2025-12-27T03:58:43.835806+00:00",
        "meta_object_name": "NEMO-HD",
        "meta_object_id": "2020-061F",
        "meta_epoch": "2025-12-26T20:31:23.793600",
        "meta_mean_motion": 15.40618965,
        "meta_eccentricity": 9.84e-05,
        "meta_inclination": 97.2188,
        "meta_ra_of_asc_node": 59.7738,
        "meta_arg_of_pericenter": 55.2588,
        "meta_mean_anomaly": 304.8751,
        "meta_ephemeris_type": 0,
        "meta_classification_type": "U",
        "meta_norad_cat_id": 46277,
        "meta_element_set_no": 999,
        "meta_rev_at_epoch": 29541,
        "meta_bstar": 0.00029134,
        "meta_mean_motion_dot": 0.00011785,
        "meta_mean_motion_ddot": 0,
        "tle_line1": "1 46277U 20061F   25360.85513650  .00011785  00000+0  29134-3 0  9997",
        "tle_line2": "2 46277  97.2188  59.7738 0000984  55.2588 304.8751 15.40618965295410"
      },
      "geometry": {
        "type": "Point",
        "coordinates": [
          90.89745010575135,
          -76.10292526240472
        ]
      }
    },
    {
      "type": "Feature",
      "properties": {
        "norad_id": 46984,
        "name": "SENTINEL-6A",
        "group": "resource",
        "lat": 14.733556755963777,
        "lon": 139.0598096393563,
        "alt_km": 1339.2965205810506,
        "timestamp": "2025-12-27T03:58:43.835816+00:00",
        "meta_object_name": "SENTINEL-6A",
        "meta_object_id": "2020-086A",
        "meta_epoch": "2025-12-26T18:31:32.280096",
        "meta_mean_motion": 12.80930832,
        "meta_eccentricity": 0.0007758,
        "meta_inclination": 66.0403,
        "meta_ra_of_asc_node": 133.163,
        "meta_arg_of_pericenter": 269.458,
        "meta_mean_anomaly": 90.5546,
        "meta_ephemeris_type": 0,
        "meta_classification_type": "U",
        "meta_norad_cat_id": 46984,
        "meta_element_set_no": 999,
        "meta_rev_at_epoch": 23824,
        "meta_bstar": 9.4021e-05,
        "meta_mean_motion_dot": -3.9e-07,
        "meta_mean_motion_ddot": 0,
        "tle_line1": "1 46984U 20086A   25360.77190139 -.00000039  00000+0  94021-4 0  9992",
        "tle_line2": "2 46984  66.0403 133.1630 0007758 269.4580  90.5546 12.80930832238244"
      },
      "geometry": {
        "type": "Point",
        "coordinates": [
          139.0598096393563,
          14.733556755963777
        ]
      }
    },
    {
      "type": "Feature",
      "properties": {
        "norad_id": 48079,
        "name": "GAOFEN-12 02",
        "group": "resource",
        "lat": 15.74431146196054,
        "lon": 177.37132417402884,
        "alt_km": 627.9889122178629,
        "timestamp": "2025-12-27T03:58:43.835825+00:00",
        "meta_object_name": "GAOFEN-12 02",
        "meta_object_id": "2021-026A",
        "meta_epoch": "2025-12-26T20:45:12.867264",
        "meta_mean_motion": 14.80691768,
        "meta_eccentricity": 0.000352,
        "meta_inclination": 97.9858,
        "meta_ra_of_asc_node": 354.8035,
        "meta_arg_of_pericenter": 72.8506,
        "meta_mean_anomaly": 287.3091,
        "meta_ephemeris_type": 0,
        "meta_classification_type": "U",
        "meta_norad_cat_id": 48079,
        "meta_element_set_no": 999,
        "meta_rev_at_epoch": 25626,
        "meta_bstar": 8.2286e-05,
        "meta_mean_motion_dot": 5.8e-06,
        "meta_mean_motion_ddot": 0,
        "tle_line1": "1 48079U 21026A   25360.86473226  .00000580  00000+0  82286-4 0  9995",
        "tle_line2": "2 48079  97.9858 354.8035 0003520  72.8506 287.3091 14.80691768256263"
      },
      "geometry": {
        "type": "Point",
        "coordinates": [
          177.37132417402884,
          15.74431146196054
        ]
      }
    },
    {
      "type": "Feature",
      "properties": {
        "norad_id": 48268,
        "name": "PLEIADES NEO 3",
        "group": "resource",
        "lat": -75.59892638398044,
        "lon": 106.10724129941745,
        "alt_km": 632.3033652962013,
        "timestamp": "2025-12-27T03:58:43.835834+00:00",
        "meta_object_name": "PLEIADES NEO 3",
        "meta_object_id": "2021-034A",
        "meta_epoch": "2025-12-26T20:13:34.453632",
        "meta_mean_motion": 14.81674183,
        "meta_eccentricity": 0.0001374,
        "meta_inclination": 97.8941,
        "meta_ra_of_asc_node": 73.0812,
        "meta_arg_of_pericenter": 88.6899,
        "meta_mean_anomaly": 271.4471,
        "meta_ephemeris_type": 0,
        "meta_classification_type": "U",
        "meta_norad_cat_id": 48268,
        "meta_element_set_no": 999,
        "meta_rev_at_epoch": 25213,
        "meta_bstar": 6.392e-05,
        "meta_mean_motion_dot": 4.51e-06,
        "meta_mean_motion_ddot": 0,
        "tle_line1": "1 48268U 21034A   25360.84275988  .00000451  00000+0  63920-4 0  9998",
        "tle_line2": "2 48268  97.8941  73.0812 0001374  88.6899 271.4471 14.81674183252134"
      },
      "geometry": {
        "type": "Point",
        "coordinates": [
          106.10724129941745,
          -75.59892638398044
        ]
      }
    },
    {
      "type": "Feature",
      "properties": {
        "norad_id": 49070,
        "name": "PLEIADES NEO 4",
        "group": "resource",
        "lat": 75.50548268892852,
        "lon": -74.14416505857609,
        "alt_km": 615.9899671532521,
        "timestamp": "2025-12-27T03:58:43.835845+00:00",
        "meta_object_name": "PLEIADES NEO 4",
        "meta_object_id": "2021-073E",
        "meta_epoch": "2025-12-26T19:24:56.114784",
        "meta_mean_motion": 14.81671003,
        "meta_eccentricity": 0.0001337,
        "meta_inclination": 97.8941,
        "meta_ra_of_asc_node": 73.0437,
        "meta_arg_of_pericenter": 87.9709,
        "meta_mean_anomaly": 272.1657,
        "meta_ephemeris_type": 0,
        "meta_classification_type": "U",
        "meta_norad_cat_id": 49070,
        "meta_element_set_no": 999,
        "meta_rev_at_epoch": 23584,
        "meta_bstar": -6.986e-05,
        "meta_mean_motion_dot": -6.02e-06,
        "meta_mean_motion_ddot": 0,
        "tle_line1": "1 49070U 21073E   25360.80898281 -.00000602  00000+0 -69860-4 0  9995",
        "tle_line2": "2 49070  97.8941  73.0437 0001337  87.9709 272.1657 14.81671003235841"
      },
      "geometry": {
        "type": "Point",
        "coordinates": [
          -74.14416505857609,
          75.50548268892852
        ]
      }
    },
    {
      "type": "Feature",
      "properties": {
        "norad_id": 49260,
        "name": "LANDSAT 9",
        "group": "resource",
        "lat": -72.85962983023224,
        "lon": 96.97005820312762,
        "alt_km": 710.5757172900603,
        "timestamp": "2025-12-27T03:58:43.835854+00:00",
        "meta_object_name": "LANDSAT 9",
        "meta_object_id": "2021-088A",
        "meta_epoch": "2025-12-26T15:08:15.498816",
        "meta_mean_motion": 14.57112026,
        "meta_eccentricity": 0.0001109,
        "meta_inclination": 98.2076,
        "meta_ra_of_asc_node": 68.5392,
        "meta_arg_of_pericenter": 93.7415,
        "meta_mean_anomaly": 266.3911,
        "meta_ephemeris_type": 0,
        "meta_classification_type": "U",
        "meta_norad_cat_id": 49260,
        "meta_element_set_no": 999,
        "meta_rev_at_epoch": 22587,
        "meta_bstar": 0.00011419,
        "meta_mean_motion_dot": 4.69e-06,
        "meta_mean_motion_ddot": 0,
        "tle_line1": "1 49260U 21088A   25360.63073494  .00000469  00000+0  11419-3 0  9999",
        "tle_line2": "2 49260  98.2076  68.5392 0001109  93.7415 266.3911 14.57112026225879"
      },
      "geometry": {
        "type": "Point",
        "coordinates": [
          96.97005820312762,
          -72.85962983023224
        ]
      }
    },
    {
      "type": "Feature",
      "properties": {
        "norad_id": 51444,
        "name": "CSG-2",
        "group": "resource",
        "lat": 19.93550086442022,
        "lon": 5.151019313865166,
        "alt_km": 622.4067259694775,
        "timestamp": "2025-12-27T03:58:43.835863+00:00",
        "meta_object_name": "CSG-2",
        "meta_object_id": "2022-008A",
        "meta_epoch": "2025-12-26T19:09:33.413760",
        "meta_mean_motion": 14.82158639,
        "meta_eccentricity": 0.0001462,
        "meta_inclination": 97.8807,
        "meta_ra_of_asc_node": 181.9096,
        "meta_arg_of_pericenter": 83.2863,
        "meta_mean_anomaly": 276.8516,
        "meta_ephemeris_type": 0,
        "meta_classification_type": "U",
        "meta_norad_cat_id": 51444,
        "meta_element_set_no": 999,
        "meta_rev_at_epoch": 21105,
        "meta_bstar": 0.00012287,
        "meta_mean_motion_dot": 9.26e-06,
        "meta_mean_motion_ddot": 0,
        "tle_line1": "1 51444U 22008A   25360.79830340  .00000926  00000+0  12287-3 0  9999",
        "tle_line2": "2 51444  97.8807 181.9096 0001462  83.2863 276.8516 14.82158639211057"
      },
      "geometry": {
        "type": "Point",
        "coordinates": [
          5.151019313865166,
          19.93550086442022
        ]
      }
    }
  ]
}